STARLINK-5205           
1 54202U 22141AX  26068.76479438 -.00000620  00000+0 -20864-4 0  9996
2 54202  53.2213 353.4688 0001611  95.7162 264.4014 15.08837111186019
DISKSAT B               
1 67220U 25305B   26068.81497770  .00012481  00000+0  82401-3 0  9990
2 67220  45.0018 250.2098 0003783 311.4052  48.6498 15.07484556 12311
