[{"OBJECT_NAME":"STARLINK-5205","OBJECT_ID":"2022-141AX","EPOCH":"2026-03-09T18:21:18.234432","MEAN_MOTION":15.08837111,"ECCENTRICITY":0.00016105,"INCLINATION":53.2213,"RA_OF_ASC_NODE":353.4688,"ARG_OF_PERICENTER":95.7162,"MEAN_ANOMALY":264.4014,"EPHEMERIS_TYPE":0,"CLASSIFICATION_TYPE":"U","NORAD_CAT_ID":54202,"ELEMENT_SET_NO":999,"REV_AT_EPOCH":18601,"BSTAR":-2.0864165e-5,"MEAN_MOTION_DOT":-6.2e-6,"MEAN_MOTION_DDOT":0},{"OBJECT_NAME":"DISKSAT B","OBJECT_ID":"2025-305B","EPOCH":"2026-03-09T19:33:34.074144","MEAN_MOTION":15.07484556,"ECCENTRICITY":0.00037827,"INCLINATION":45.0018,"RA_OF_ASC_NODE":250.2098,"ARG_OF_PERICENTER":311.4052,"MEAN_ANOMALY":48.6498,"EPHEMERIS_TYPE":0,"CLASSIFICATION_TYPE":"U","NORAD_CAT_ID":67220,"ELEMENT_SET_NO":999,"REV_AT_EPOCH":1231,"BSTAR":0.00082400752,"MEAN_MOTION_DOT":0.00012481,"MEAN_MOTION_DDOT":0}]
